IRIDIUM 57              
1 25273U 98019B   24274.90343344  .00001428  00000+0  49083-3 0  9996
2 25273  86.3915 253.8110 0002323  89.9930 270.1533 14.35430518387587
IRIDIUM 63              
1 25286U 98021B   24274.81571349  .00001601  00000+0  54424-3 0  9999
2 25286  86.4058 190.8100 0002451  79.3386 280.8087 14.36038127386615
IRIDIUM 69              
1 25319U 98026A   24274.85054464  .00002499  00000+0  78281-3 0  9992
2 25319  86.4035 204.8446 0003799 119.8062 240.3516 14.40313913385726
IRIDIUM 71              
1 25320U 98026B   24274.82804285  .00001899  00000+0  58975-3 0  9996
2 25320  86.4042 199.5998 0001613 143.1861 216.9449 14.40607628386249
IRIDIUM 73              
1 25344U 98032C   24274.62650575  .00001868  00000+0  46833-3 0  9994
2 25344  86.4465 156.9938 0002626  95.8855 264.2650 14.50930053392919
IRIDIUM 82              
1 25467U 98051A   24274.92659194  .00027761  00000+0  12403-2 0  9995
2 25467  86.3723 235.3996 0116190 188.1308 171.8055 15.15237964384475
